[{"OBJECT_NAME":"XW-3 (CAS-9)","OBJECT_ID":"2021-131B","EPOCH":"2026-03-03T21:08:06.556416","MEAN_MOTION":14.41241212,"ECCENTRICITY":0.0005076,"INCLINATION":98.4969,"RA_OF_ASC_NODE":155.8697,"ARG_OF_PERICENTER":64.0743,"MEAN_ANOMALY":296.0968,"EPHEMERIS_TYPE":0,"CLASSIFICATION_TYPE":"U","NORAD_CAT_ID":50466,"ELEMENT_SET_NO":999,"REV_AT_EPOCH":21994,"BSTAR":0.00019724,"MEAN_MOTION_DOT":5.93e-6,"MEAN_MOTION_DDOT":0},{"OBJECT_NAME":"GREENCUBE (IO-117)","OBJECT_ID":"2022-080E","EPOCH":"2026-03-02T17:29:44.105280","MEAN_MOTION":6.42583122,"ECCENTRICITY":0.00090439,"INCLINATION":70.1617,"RA_OF_ASC_NODE":335.2737,"ARG_OF_PERICENTER":313.3588,"MEAN_ANOMALY":46.6318,"EPHEMERIS_TYPE":0,"CLASSIFICATION_TYPE":"U","NORAD_CAT_ID":53109,"ELEMENT_SET_NO":999,"REV_AT_EPOCH":8522,"BSTAR":0,"MEAN_MOTION_DOT":-3.0e-8,"MEAN_MOTION_DDOT":0},{"OBJECT_NAME":"UMKA 1 (RS40S)","OBJECT_ID":"2023-091G","EPOCH":"2026-03-03T17:04:23.490336","MEAN_MOTION":15.19488018,"ECCENTRICITY":0.0014483,"INCLINATION":97.5191,"RA_OF_ASC_NODE":121.8421,"ARG_OF_PERICENTER":124.8398,"MEAN_ANOMALY":235.4201,"EPHEMERIS_TYPE":0,"CLASSIFICATION_TYPE":"U","NORAD_CAT_ID":57172,"ELEMENT_SET_NO":999,"REV_AT_EPOCH":14798,"BSTAR":0.00046275,"MEAN_MOTION_DOT":9.783e-5,"MEAN_MOTION_DDOT":0},{"OBJECT_NAME":"CUBESX-HSE 3 (RS42S)","OBJECT_ID":"2023-091N","EPOCH":"2026-03-03T20:50:16.259136","MEAN_MOTION":15.28387115,"ECCENTRICITY":0.0012805,"INCLINATION":97.522,"RA_OF_ASC_NODE":127.2801,"ARG_OF_PERICENTER":105.6604,"MEAN_ANOMALY":254.6049,"EPHEMERIS_TYPE":0,"CLASSIFICATION_TYPE":"U","NORAD_CAT_ID":57178,"ELEMENT_SET_NO":999,"REV_AT_EPOCH":14832,"BSTAR":0.00071185,"MEAN_MOTION_DOT":0.00019676,"MEAN_MOTION_DDOT":0},{"OBJECT_NAME":"MONITOR-3 (RS58S)","OBJECT_ID":"2023-091Q","EPOCH":"2026-03-03T21:00:32.448384","MEAN_MOTION":15.25558955,"ECCENTRICITY":0.0013729,"INCLINATION":97.5215,"RA_OF_ASC_NODE":125.6573,"ARG_OF_PERICENTER":110.2681,"MEAN_ANOMALY":250.0034,"EPHEMERIS_TYPE":0,"CLASSIFICATION_TYPE":"U","NORAD_CAT_ID":57180,"ELEMENT_SET_NO":999,"REV_AT_EPOCH":14822,"BSTAR":0.00062063,"MEAN_MOTION_DOT":0.00015734,"MEAN_MOTION_DDOT":0},{"OBJECT_NAME":"MONITOR-4 (RS57S)","OBJECT_ID":"2023-091S","EPOCH":"2026-03-03T20:39:35.437248","MEAN_MOTION":15.25644852,"ECCENTRICITY":0.0013671,"INCLINATION":97.5209,"RA_OF_ASC_NODE":125.6074,"ARG_OF_PERICENTER":110.6921,"MEAN_ANOMALY":249.5783,"EPHEMERIS_TYPE":0,"CLASSIFICATION_TYPE":"U","NORAD_CAT_ID":57182,"ELEMENT_SET_NO":999,"REV_AT_EPOCH":14822,"BSTAR":0.0006487,"MEAN_MOTION_DOT":0.00016493,"MEAN_MOTION_DDOT":0},{"OBJECT_NAME":"MONITOR-2 (RS39S)","OBJECT_ID":"2023-091U","EPOCH":"2026-03-03T20:55:29.835840","MEAN_MOTION":15.17827034,"ECCENTRICITY":0.001295,"INCLINATION":97.5214,"RA_OF_ASC_NODE":121.8439,"ARG_OF_PERICENTER":116.6282,"MEAN_ANOMALY":243.6279,"EPHEMERIS_TYPE":0,"CLASSIFICATION_TYPE":"U","NORAD_CAT_ID":57184,"ELEMENT_SET_NO":999,"REV_AT_EPOCH":14797,"BSTAR":0.00035714,"MEAN_MOTION_DOT":7.174e-5,"MEAN_MOTION_DDOT":0},{"OBJECT_NAME":"SVYATOBOR 1 (RS60S)","OBJECT_ID":"2023-091X","EPOCH":"2026-03-03T20:37:25.317120","MEAN_MOTION":15.24658453,"ECCENTRICITY":0.0011255,"INCLINATION":97.5221,"RA_OF_ASC_NODE":126.1771,"ARG_OF_PERICENTER":103.1459,"MEAN_ANOMALY":257.1035,"EPHEMERIS_TYPE":0,"CLASSIFICATION_TYPE":"U","NORAD_CAT_ID":57187,"ELEMENT_SET_NO":999,"REV_AT_EPOCH":14825,"BSTAR":0.0005943,"MEAN_MOTION_DOT":0.00014647,"MEAN_MOTION_DDOT":0},{"OBJECT_NAME":"VIZARD-METEO (RS38S)","OBJECT_ID":"2023-091Z","EPOCH":"2026-03-03T21:17:35.208384","MEAN_MOTION":15.32488356,"ECCENTRICITY":0.0008996,"INCLINATION":97.521,"RA_OF_ASC_NODE":130.4818,"ARG_OF_PERICENTER":90.1928,"MEAN_ANOMALY":270.0344,"EPHEMERIS_TYPE":0,"CLASSIFICATION_TYPE":"U","NORAD_CAT_ID":57189,"ELEMENT_SET_NO":999,"REV_AT_EPOCH":14854,"BSTAR":0.00079155,"MEAN_MOTION_DOT":0.00024834,"MEAN_MOTION_DDOT":0},{"OBJECT_NAME":"NANOZOND 1 (RS49S)","OBJECT_ID":"2023-091AA","EPOCH":"2026-03-03T19:55:25.959648","MEAN_MOTION":15.71985623,"ECCENTRICITY":5.42e-5,"INCLINATION":97.5097,"RA_OF_ASC_NODE":142.6168,"ARG_OF_PERICENTER":53.7197,"MEAN_ANOMALY":306.4116,"EPHEMERIS_TYPE":0,"CLASSIFICATION_TYPE":"U","NORAD_CAT_ID":57190,"ELEMENT_SET_NO":999,"REV_AT_EPOCH":14935,"BSTAR":0.0017646,"MEAN_MOTION_DOT":0.00236008,"MEAN_MOTION_DDOT":0},{"OBJECT_NAME":"POLYTECH-UNIVERSE 3 (RS46S)","OBJECT_ID":"2023-091AB","EPOCH":"2026-03-03T20:19:11.531136","MEAN_MOTION":15.18008054,"ECCENTRICITY":0.0017106,"INCLINATION":97.5187,"RA_OF_ASC_NODE":121.3258,"ARG_OF_PERICENTER":132.8981,"MEAN_ANOMALY":227.3691,"EPHEMERIS_TYPE":0,"CLASSIFICATION_TYPE":"U","NORAD_CAT_ID":57191,"ELEMENT_SET_NO":999,"REV_AT_EPOCH":14796,"BSTAR":0.00040991,"MEAN_MOTION_DOT":8.302e-5,"MEAN_MOTION_DDOT":0},{"OBJECT_NAME":"UTMN 2 (RS27S)","OBJECT_ID":"2023-091AP","EPOCH":"2026-03-03T21:07:02.502912","MEAN_MOTION":15.29273333,"ECCENTRICITY":0.0009901,"INCLINATION":97.5212,"RA_OF_ASC_NODE":128.7961,"ARG_OF_PERICENTER":94.4155,"MEAN_ANOMALY":265.8216,"EPHEMERIS_TYPE":0,"CLASSIFICATION_TYPE":"U","NORAD_CAT_ID":57203,"ELEMENT_SET_NO":999,"REV_AT_EPOCH":14843,"BSTAR":0.00068103,"MEAN_MOTION_DOT":0.0001932,"MEAN_MOTION_DDOT":0},{"OBJECT_NAME":"KUZGTU 1 (RS47S)","OBJECT_ID":"2023-091AV","EPOCH":"2026-03-03T20:09:15.854112","MEAN_MOTION":15.27272143,"ECCENTRICITY":0.0013003,"INCLINATION":97.5197,"RA_OF_ASC_NODE":126.3813,"ARG_OF_PERICENTER":108.4384,"MEAN_ANOMALY":251.827,"EPHEMERIS_TYPE":0,"CLASSIFICATION_TYPE":"U","NORAD_CAT_ID":57217,"ELEMENT_SET_NO":999,"REV_AT_EPOCH":14828,"BSTAR":0.00068395,"MEAN_MOTION_DOT":0.00018269,"MEAN_MOTION_DDOT":0},{"OBJECT_NAME":"SONATE-2","OBJECT_ID":"2024-043Q","EPOCH":"2026-03-03T08:05:13.857216","MEAN_MOTION":15.50754835,"ECCENTRICITY":0.00077979,"INCLINATION":97.5388,"RA_OF_ASC_NODE":206.964,"ARG_OF_PERICENTER":228.817,"MEAN_ANOMALY":131.2409,"EPHEMERIS_TYPE":0,"CLASSIFICATION_TYPE":"U","NORAD_CAT_ID":59112,"ELEMENT_SET_NO":999,"REV_AT_EPOCH":11144,"BSTAR":0.00074321577,"MEAN_MOTION_DOT":0.00042896,"MEAN_MOTION_DDOT":0},{"OBJECT_NAME":"MESAT1","OBJECT_ID":"2024-125G","EPOCH":"2026-03-03T15:28:03.545472","MEAN_MOTION":15.52946905,"ECCENTRICITY":0.0011263,"INCLINATION":97.2463,"RA_OF_ASC_NODE":278.4275,"ARG_OF_PERICENTER":246.9709,"MEAN_ANOMALY":113.0357,"EPHEMERIS_TYPE":0,"CLASSIFICATION_TYPE":"U","NORAD_CAT_ID":60209,"ELEMENT_SET_NO":999,"REV_AT_EPOCH":9313,"BSTAR":0.00083683,"MEAN_MOTION_DOT":0.00052379,"MEAN_MOTION_DDOT":0},{"OBJECT_NAME":"OOV-CUBE (TUBSAT-30)","OBJECT_ID":"2024-128F","EPOCH":"2026-03-03T16:55:47.049024","MEAN_MOTION":15.02193642,"ECCENTRICITY":0.0055028,"INCLINATION":61.9935,"RA_OF_ASC_NODE":233.2348,"ARG_OF_PERICENTER":111.1965,"MEAN_ANOMALY":249.5017,"EPHEMERIS_TYPE":0,"CLASSIFICATION_TYPE":"U","NORAD_CAT_ID":60240,"ELEMENT_SET_NO":999,"REV_AT_EPOCH":9026,"BSTAR":0.00035541,"MEAN_MOTION_DOT":4.646e-5,"MEAN_MOTION_DDOT":0}]
