XW-3 (CAS-9)            
1 50466U 21131B   26062.88063144  .00000593  00000+0  19724-3 0  9991
2 50466  98.4969 155.8697 0005076  64.0743 296.0968 14.41241212219948
GREENCUBE (IO-117)      
1 53109U 22080E   26061.72898270 -.00000003  00000+0  00000+0 0  9990
2 53109  70.1617 335.2737 0009043 313.3588  46.6318  6.42583122 85227
UMKA 1 (RS40S)          
1 57172U 23091G   26062.71138299  .00009783  00000+0  46275-3 0  9996
2 57172  97.5191 121.8421 0014483 124.8398 235.4201 15.19488018147981
CUBESX-HSE 3 (RS42S)    
1 57178U 23091N   26062.86824374  .00019676  00000+0  71185-3 0  9994
2 57178  97.5220 127.2801 0012805 105.6604 254.6049 15.28387115148323
MONITOR-3 (RS58S)       
1 57180U 23091Q   26062.87537556  .00015734  00000+0  62063-3 0  9997
2 57180  97.5215 125.6573 0013729 110.2681 250.0034 15.25558955148223
MONITOR-4 (RS57S)       
1 57182U 23091S   26062.86082682  .00016493  00000+0  64870-3 0  9994
2 57182  97.5209 125.6074 0013671 110.6921 249.5783 15.25644852148227
MONITOR-2 (RS39S)       
1 57184U 23091U   26062.87187310  .00007174  00000+0  35714-3 0  9992
2 57184  97.5214 121.8439 0012950 116.6282 243.6279 15.17827034147975
SVYATOBOR 1 (RS60S)     
1 57187U 23091X   26062.85932080  .00014647  00000+0  59430-3 0  9999
2 57187  97.5221 126.1771 0011255 103.1459 257.1035 15.24658453148254
VIZARD-METEO (RS38S)    
1 57189U 23091Z   26062.88721306  .00024834  00000+0  79155-3 0  9996
2 57189  97.5210 130.4818 0008996  90.1928 270.0344 15.32488356148549
NANOZOND 1 (RS49S)      
1 57190U 23091AA  26062.83016157  .00236008  00000+0  17646-2 0  9998
2 57190  97.5097 142.6168 0000542  53.7197 306.4116 15.71985623149352
POLYTECH-UNIVERSE 3 (R*)
1 57191U 23091AB  26062.84666124  .00008302  00000+0  40991-3 0  9999
2 57191  97.5187 121.3258 0017106 132.8981 227.3691 15.18008054147960
UTMN 2 (RS27S)          
1 57203U 23091AP  26062.87989008  .00019320  00000+0  68103-3 0  9992
2 57203  97.5212 128.7961 0009901  94.4155 265.8216 15.29273333148434
KUZGTU 1 (RS47S)        
1 57217U 23091AV  26062.83976683  .00018269  00000+0  68395-3 0  9992
2 57217  97.5197 126.3813 0013003 108.4384 251.8270 15.27272143148283
SONATE-2                
1 59112U 24043Q   26062.33696594  .00042896  00000+0  74322-3 0  9991
2 59112  97.5388 206.9640 0007797 228.8170 131.2409 15.50754835111449
MESAT1                  
1 60209U 24125G   26062.64448548  .00052379  00000+0  83683-3 0  9996
2 60209  97.2463 278.4275 0011263 246.9709 113.0357 15.52946905 93137
OOV-CUBE (TUBSAT-30)    
1 60240U 24128F   26062.70540566  .00004646  00000+0  35541-3 0  9998
2 60240  61.9935 233.2348 0055028 111.1965 249.5017 15.02193642 90264
